{"type": "FeatureCollection", "features": [ {"type": "Feature", "properties": {"norad_id": 57401, "name": "TIANMU-1 09", "group": "weather", "lat": 34.884905392100144, "lon": -130.31451353036908, "alt_km": 478.6124789711166, "timestamp": "2025-12-21T14:40:47.553485+00:00", "meta": {"OBJECT_NAME": "TIANMU-1 09", "OBJECT_ID": "2023-101C", "EPOCH": "2025-12-21T06:11:31.027200", "MEAN_MOTION": 15.28199017, "ECCENTRICITY": 0.00064528, "INCLINATION": 97.2809, "RA_OF_ASC_NODE": 44.2256, "ARG_OF_PERICENTER": 60.4454, "MEAN_ANOMALY": 299.7428, "EPHEMERIS_TYPE": 0, "CLASSIFICATION_TYPE": "U", "NORAD_CAT_ID": 57401, "ELEMENT_SET_NO": 999, "REV_AT_EPOCH": 13445, "BSTAR": 0.00020954522, "MEAN_MOTION_DOT": 5.688e-05, "MEAN_MOTION_DDOT": 0}, "tle": {"line1": "1 57401U 23101C   25355.25799800  .00005688  00000+0  20955-3 0  9994", "line2": "2 57401  97.2809  44.2256 0006452  60.4454 299.7428 15.28199017134458"}}, "geometry": {"type": "Point", "coordinates": [-130.31451353036908, 34.884905392100144]}}, {"type": "Feature", "properties": {"norad_id": 57402, "name": "TIANMU-1 10", "group": "weather", "lat": -43.46754199455219, "lon": 52.399080396000635, "alt_km": 489.051847829548, "timestamp": "2025-12-21T14:40:47.553496+00:00", "meta": {"OBJECT_NAME": "TIANMU-1 10", "OBJECT_ID": "2023-101D", "EPOCH": "2025-12-21T05:26:33.554400", "MEAN_MOTION": 15.28190054, "ECCENTRICITY": 0.0008192, "INCLINATION": 97.2889, "RA_OF_ASC_NODE": 45.0539, "ARG_OF_PERICENTER": 58.9464, "MEAN_ANOMALY": 301.258, "EPHEMERIS_TYPE": 0, "CLASSIFICATION_TYPE": "U", "NORAD_CAT_ID": 57402, "ELEMENT_SET_NO": 999, "REV_AT_EPOCH": 13444, "BSTAR": 0.000215234, "MEAN_MOTION_DOT": 5.845e-05, "MEAN_MOTION_DDOT": 0}, "tle": {"line1": "1 57402U 23101D   25355.22677725  .00005845  00000+0  21523-3 0  9990", "line2": "2 57402  97.2889  45.0539 0008192  58.9464 301.2580 15.28190054134445"}}, "geometry": {"type": "Point", "coordinates": [52.399080396000635, -43.46754199455219]}}, {"type": "Feature", "properties": {"norad_id": 57490, "name": "FENGYUN 3F", "group": "weather", "lat": 4.442640585478224, "lon": 63.079206307106965, "alt_km": 828.2002331855074, "timestamp": "2025-12-21T14:40:47.553506+00:00", "meta": {"OBJECT_NAME": "FENGYUN 3F", "OBJECT_ID": "2023-111A", "EPOCH": "2025-12-21T06:12:09.635904", "MEAN_MOTION": 14.19895703, "ECCENTRICITY": 7.679e-05, "INCLINATION": 98.7073, "RA_OF_ASC_NODE": 63.414, "ARG_OF_PERICENTER": 114.4658, "MEAN_ANOMALY": 245.6599, "EPHEMERIS_TYPE": 0, "CLASSIFICATION_TYPE": "U", "NORAD_CAT_ID": 57490, "ELEMENT_SET_NO": 999, "REV_AT_EPOCH": 12361, "BSTAR": 5.4175831e-05, "MEAN_MOTION_DOT": 7.1e-07, "MEAN_MOTION_DDOT": 0}, "tle": {"line1": "1 57490U 23111A   25355.25844486  .00000071  00000+0  54176-4 0  9998", "line2": "2 57490  98.7073  63.4140 0000767 114.4658 245.6599 14.19895703123618"}}, "geometry": {"type": "Point", "coordinates": [63.079206307106965, 4.442640585478224]}}, {"type": "Feature", "properties": {"norad_id": 58584, "name": "ARKTIKA-M 2", "group": "weather", "lat": 59.59336681277538, "lon": -65.49805677673878, "alt_km": 34559.90854690402, "timestamp": "2025-12-21T14:40:47.553517+00:00", "meta": {"OBJECT_NAME": "ARKTIKA-M 2", "OBJECT_ID": "2023-198A", "EPOCH": "2025-12-20T07:20:06.590112", "MEAN_MOTION": 2.00602824, "ECCENTRICITY": 0.68654675, "INCLINATION": 63.225, "RA_OF_ASC_NODE": 174.0676, "ARG_OF_PERICENTER": 268.0739, "MEAN_ANOMALY": 18.8406, "EPHEMERIS_TYPE": 0, "CLASSIFICATION_TYPE": "U", "NORAD_CAT_ID": 58584, "ELEMENT_SET_NO": 999, "REV_AT_EPOCH": 1473, "BSTAR": 0, "MEAN_MOTION_DOT": 2.01e-06, "MEAN_MOTION_DDOT": 0}, "tle": {"line1": "1 58584U 23198A   25354.30563183  .00000201  00000+0  00000+0 0  9992", "line2": "2 58584  63.2250 174.0676 6865467 268.0739  18.8406  2.00602824 14734"}}, "geometry": {"type": "Point", "coordinates": [-65.49805677673878, 59.59336681277538]}}, {"type": "Feature", "properties": {"norad_id": 58645, "name": "TIANMU-1 11", "group": "weather", "lat": 23.996401117832345, "lon": 11.78079366223262, "alt_km": 493.10181529165493, "timestamp": "2025-12-21T14:40:47.553531+00:00", "meta": {"OBJECT_NAME": "TIANMU-1 11", "OBJECT_ID": "2023-205A", "EPOCH": "2025-12-21T05:07:24.334176", "MEAN_MOTION": 15.24694159, "ECCENTRICITY": 0.0007524, "INCLINATION": 97.3594, "RA_OF_ASC_NODE": 14.6879, "ARG_OF_PERICENTER": 274.3204, "MEAN_ANOMALY": 85.7174, "EPHEMERIS_TYPE": 0, "CLASSIFICATION_TYPE": "U", "NORAD_CAT_ID": 58645, "ELEMENT_SET_NO": 999, "REV_AT_EPOCH": 11038, "BSTAR": 0.00019787801, "MEAN_MOTION_DOT": 4.825e-05, "MEAN_MOTION_DDOT": 0}, "tle": {"line1": "1 58645U 23205A   25355.21347609  .00004825  00000+0  19788-3 0  9996", "line2": "2 58645  97.3594  14.6879 0007524 274.3204  85.7174 15.24694159110383"}}, "geometry": {"type": "Point", "coordinates": [11.78079366223262, 23.996401117832345]}}, {"type": "Feature", "properties": {"norad_id": 58646, "name": "TIANMU-1 12", "group": "weather", "lat": -52.194131303925765, "lon": -174.70645646296418, "alt_km": 495.2492422215528, "timestamp": "2025-12-21T14:40:47.553543+00:00", "meta": {"OBJECT_NAME": "TIANMU-1 12", "OBJECT_ID": "2023-205B", "EPOCH": "2025-12-21T07:21:39.074400", "MEAN_MOTION": 15.24580489, "ECCENTRICITY": 0.00058337, "INCLINATION": 97.3582, "RA_OF_ASC_NODE": 14.582, "ARG_OF_PERICENTER": 252.3404, "MEAN_ANOMALY": 107.7197, "EPHEMERIS_TYPE": 0, "CLASSIFICATION_TYPE": "U", "NORAD_CAT_ID": 58646, "ELEMENT_SET_NO": 999, "REV_AT_EPOCH": 11038, "BSTAR": 0.00019833282, "MEAN_MOTION_DOT": 4.818e-05, "MEAN_MOTION_DDOT": 0}, "tle": {"line1": "1 58646U 23205B   25355.30670225  .00004818  00000+0  19833-3 0  9993", "line2": "2 58646  97.3582  14.5820 0005833 252.3404 107.7197 15.24580489110385"}}, "geometry": {"type": "Point", "coordinates": [-174.70645646296418, -52.194131303925765]}}, {"type": "Feature", "properties": {"norad_id": 58647, "name": "TIANMU-1 13", "group": "weather", "lat": 49.48404574007418, "lon": 6.385369324552785, "alt_km": 491.8160926558912, "timestamp": "2025-12-21T14:40:47.553554+00:00", "meta": {"OBJECT_NAME": "TIANMU-1 13", "OBJECT_ID": "2023-205C", "EPOCH": "2025-12-21T05:00:35.486784", "MEAN_MOTION": 15.24622614, "ECCENTRICITY": 0.00063322, "INCLINATION": 97.361, "RA_OF_ASC_NODE": 14.6904, "ARG_OF_PERICENTER": 229.4131, "MEAN_ANOMALY": 130.6556, "EPHEMERIS_TYPE": 0, "CLASSIFICATION_TYPE": "U", "NORAD_CAT_ID": 58647, "ELEMENT_SET_NO": 999, "REV_AT_EPOCH": 11036, "BSTAR": 0.00020655689, "MEAN_MOTION_DOT": 5.028e-05, "MEAN_MOTION_DDOT": 0}, "tle": {"line1": "1 58647U 23205C   25355.20874406  .00005028  00000+0  20656-3 0  9999", "line2": "2 58647  97.3610  14.6904 0006332 229.4131 130.6556 15.24622614110368"}}, "geometry": {"type": "Point", "coordinates": [6.385369324552785, 49.48404574007418]}}, {"type": "Feature", "properties": {"norad_id": 58648, "name": "TIANMU-1 14", "group": "weather", "lat": 38.97509746736353, "lon": -159.57514981734423, "alt_km": 489.3939096889917, "timestamp": "2025-12-21T14:40:47.553564+00:00", "meta": {"OBJECT_NAME": "TIANMU-1 14", "OBJECT_ID": "2023-205D", "EPOCH": "2025-12-21T07:45:50.572800", "MEAN_MOTION": 15.24606912, "ECCENTRICITY": 0.00070825, "INCLINATION": 97.3541, "RA_OF_ASC_NODE": 14.144, "ARG_OF_PERICENTER": 235.2528, "MEAN_ANOMALY": 124.8043, "EPHEMERIS_TYPE": 0, "CLASSIFICATION_TYPE": "U", "NORAD_CAT_ID": 58648, "ELEMENT_SET_NO": 999, "REV_AT_EPOCH": 11038, "BSTAR": 0.00020247284, "MEAN_MOTION_DOT": 4.925e-05, "MEAN_MOTION_DDOT": 0}, "tle": {"line1": "1 58648U 23205D   25355.32350200  .00004925  00000+0  20247-3 0  9995", "line2": "2 58648  97.3541  14.1440 0007082 235.2528 124.8043 15.24606912110381"}}, "geometry": {"type": "Point", "coordinates": [-159.57514981734423, 38.97509746736353]}}, {"type": "Feature", "properties": {"norad_id": 58660, "name": "TIANMU-1 19", "group": "weather", "lat": 36.629187179047136, "lon": -67.79288869035615, "alt_km": 478.29749628927675, "timestamp": "2025-12-21T14:40:47.553575+00:00", "meta": {"OBJECT_NAME": "TIANMU-1 19", "OBJECT_ID": "2023-208A", "EPOCH": "2025-12-21T06:11:51.548064", "MEAN_MOTION": 15.27993101, "ECCENTRICITY": 0.00045264, "INCLINATION": 97.4395, "RA_OF_ASC_NODE": 106.2794, "ARG_OF_PERICENTER": 215.4921, "MEAN_ANOMALY": 144.6018, "EPHEMERIS_TYPE": 0, "CLASSIFICATION_TYPE": "U", "NORAD_CAT_ID": 58660, "ELEMENT_SET_NO": 999, "REV_AT_EPOCH": 11012, "BSTAR": 0.00027438341, "MEAN_MOTION_DOT": 7.421e-05, "MEAN_MOTION_DDOT": 0}, "tle": {"line1": "1 58660U 23208A   25355.25823551  .00007421  00000+0  27438-3 0  9991", "line2": "2 58660  97.4395 106.2794 0004526 215.4921 144.6018 15.27993101110121"}}, "geometry": {"type": "Point", "coordinates": [-67.79288869035615, 36.629187179047136]}}, {"type": "Feature", "properties": {"norad_id": 58661, "name": "TIANMU-1 20", "group": "weather", "lat": -73.49867691428767, "lon": -99.06177479329845, "alt_km": 481.503945642874, "timestamp": "2025-12-21T14:40:47.553585+00:00", "meta": {"OBJECT_NAME": "TIANMU-1 20", "OBJECT_ID": "2023-208B", "EPOCH": "2025-12-21T07:17:06.558432", "MEAN_MOTION": 15.29184133, "ECCENTRICITY": 0.00066023, "INCLINATION": 97.4333, "RA_OF_ASC_NODE": 106.7806, "ARG_OF_PERICENTER": 230.0746, "MEAN_ANOMALY": 129.9914, "EPHEMERIS_TYPE": 0, "CLASSIFICATION_TYPE": "U", "NORAD_CAT_ID": 58661, "ELEMENT_SET_NO": 999, "REV_AT_EPOCH": 11020, "BSTAR": 0.00025768937, "MEAN_MOTION_DOT": 7.226e-05, "MEAN_MOTION_DDOT": 0}, "tle": {"line1": "1 58661U 23208B   25355.30354813  .00007226  00000+0  25769-3 0  9996", "line2": "2 58661  97.4333 106.7806 0006602 230.0746 129.9914 15.29184133110207"}}, "geometry": {"type": "Point", "coordinates": [-99.06177479329845, -73.49867691428767]}}]}